{
  "type": "FeatureCollection",
  "features": [
    {
      "type": "Feature",
      "properties": {
        "norad_id": 66909,
        "name": "SILVERSAT",
        "group": "stations",
        "lat": -9.26296546771577,
        "lon": -59.42510781726642,
        "alt_km": 410.61443579133174,
        "timestamp": "2025-12-18T14:52:06.803438+00:00",
        "meta_object_name": "SILVERSAT",
        "meta_object_id": "1998-067XV",
        "meta_epoch": "2025-12-17T14:52:13.125504",
        "meta_mean_motion": 15.52286885,
        "meta_eccentricity": 0.00039934,
        "meta_inclination": 51.6308,
        "meta_ra_of_asc_node": 118.1251,
        "meta_arg_of_pericenter": 257.3923,
        "meta_mean_anomaly": 102.662,
        "meta_ephemeris_type": 0,
        "meta_classification_type": "U",
        "meta_norad_cat_id": 66909,
        "meta_element_set_no": 999,
        "meta_rev_at_epoch": 237,
        "meta_bstar": 0.00095195038,
        "meta_mean_motion_dot": 0.00058931,
        "meta_mean_motion_ddot": 0,
        "tle_line1": "1 66909U 98067XV  25351.61959636  .00058931  00000+0  95195-3 0  9998",
        "tle_line2": "2 66909  51.6308 118.1251 0003993 257.3923 102.6620 15.52286885  2378"
      },
      "geometry": {
        "type": "Point",
        "coordinates": [
          -59.42510781726642,
          -9.26296546771577
        ]
      }
    },
    {
      "type": "Feature",
      "properties": {
        "norad_id": 66910,
        "name": "1998-067XW",
        "group": "stations",
        "lat": -16.91371188613838,
        "lon": -52.928593200806404,
        "alt_km": 409.7795061404895,
        "timestamp": "2025-12-18T14:52:06.803448+00:00",
        "meta_object_name": "1998-067XW",
        "meta_object_id": "1998-067XW",
        "meta_epoch": "2025-12-17T14:49:41.645568",
        "meta_mean_motion": 15.52327753,
        "meta_eccentricity": 0.00045296,
        "meta_inclination": 51.6302,
        "meta_ra_of_asc_node": 118.1137,
        "meta_arg_of_pericenter": 233.5237,
        "meta_mean_anomaly": 126.5336,
        "meta_ephemeris_type": 0,
        "meta_classification_type": "U",
        "meta_norad_cat_id": 66910,
        "meta_element_set_no": 999,
        "meta_rev_at_epoch": 237,
        "meta_bstar": 0.00083127757,
        "meta_mean_motion_dot": 0.00051432,
        "meta_mean_motion_ddot": 0,
        "tle_line1": "1 66910U 98067XW  25351.61784312  .00051432  00000+0  83128-3 0  9999",
        "tle_line2": "2 66910  51.6302 118.1137 0004529 233.5237 126.5336 15.52327753  2376"
      },
      "geometry": {
        "type": "Point",
        "coordinates": [
          -52.928593200806404,
          -16.91371188613838
        ]
      }
    },
    {
      "type": "Feature",
      "properties": {
        "norad_id": 66911,
        "name": "1998-067XX",
        "group": "stations",
        "lat": -25.08891048257854,
        "lon": -45.117988660309,
        "alt_km": 409.3066681127466,
        "timestamp": "2025-12-18T14:52:06.803458+00:00",
        "meta_object_name": "1998-067XX",
        "meta_object_id": "1998-067XX",
        "meta_epoch": "2025-12-17T14:47:13.814304",
        "meta_mean_motion": 15.52703134,
        "meta_eccentricity": 0.00042191,
        "meta_inclination": 51.6305,
        "meta_ra_of_asc_node": 118.1027,
        "meta_arg_of_pericenter": 237.6725,
        "meta_mean_anomaly": 122.3857,
        "meta_ephemeris_type": 0,
        "meta_classification_type": "U",
        "meta_norad_cat_id": 66911,
        "meta_element_set_no": 999,
        "meta_rev_at_epoch": 236,
        "meta_bstar": 0.00097424314,
        "meta_mean_motion_dot": 0.00061259,
        "meta_mean_motion_ddot": 0,
        "tle_line1": "1 66911U 98067XX  25351.61613211  .00061259  00000+0  97424-3 0  9991",
        "tle_line2": "2 66911  51.6305 118.1027 0004219 237.6725 122.3857 15.52703134  2363"
      },
      "geometry": {
        "type": "Point",
        "coordinates": [
          -45.117988660309,
          -25.08891048257854
        ]
      }
    },
    {
      "type": "Feature",
      "properties": {
        "norad_id": 66912,
        "name": "1998-067XY",
        "group": "stations",
        "lat": 8.084311955456403,
        "lon": -73.26493674505419,
        "alt_km": 411.1047832674076,
        "timestamp": "2025-12-18T14:52:06.803468+00:00",
        "meta_object_name": "1998-067XY",
        "meta_object_id": "1998-067XY",
        "meta_epoch": "2025-12-17T14:57:17.442720",
        "meta_mean_motion": 15.51610656,
        "meta_eccentricity": 0.0004152,
        "meta_inclination": 51.6301,
        "meta_ra_of_asc_node": 118.1487,
        "meta_arg_of_pericenter": 250.0151,
        "meta_mean_anomaly": 110.0391,
        "meta_ephemeris_type": 0,
        "meta_classification_type": "U",
        "meta_norad_cat_id": 66912,
        "meta_element_set_no": 999,
        "meta_rev_at_epoch": 236,
        "meta_bstar": 0.00073169198,
        "meta_mean_motion_dot": 0.00044013,
        "meta_mean_motion_ddot": 0,
        "tle_line1": "1 66912U 98067XY  25351.62311855  .00044013  00000+0  73169-3 0  9991",
        "tle_line2": "2 66912  51.6301 118.1487 0004152 250.0151 110.0391 15.51610656  2360"
      },
      "geometry": {
        "type": "Point",
        "coordinates": [
          -73.26493674505419,
          8.084311955456403
        ]
      }
    }
  ]
}